CCSDS_OMM_VERS = 2.0
CREATION_DATE  = 
ORIGINATOR     = 

OBJECT_NAME    = ALSAT-3B
OBJECT_ID      = 2026-021A
CENTER_NAME    = EARTH
REF_FRAME      = TEME
TIME_SYSTEM    = UTC
MEAN_ELEMENT_THEORY = SGP/SGP4

EPOCH          = 2026-03-01T19:57:15.570144
MEAN_MOTION    = 15.23815692
ECCENTRICITY   = .0013291
INCLINATION    = 97.4688
RA_OF_ASC_NODE = 135.2037
ARG_OF_PERICENTER = 157.5739
MEAN_ANOMALY   = 202.6082

EPHEMERIS_TYPE = 0
CLASSIFICATION_TYPE = U
NORAD_CAT_ID   = 67646
ELEMENT_SET_NO = 999
REV_AT_EPOCH   = 452
BSTAR          = .35963E-3
MEAN_MOTION_DOT = .8614E-4
MEAN_MOTION_DDOT = 0

CCSDS_OMM_VERS = 2.0
CREATION_DATE  = 
ORIGINATOR     = 

OBJECT_NAME    = CZ-2C R/B
OBJECT_ID      = 2026-021B
CENTER_NAME    = EARTH
REF_FRAME      = TEME
TIME_SYSTEM    = UTC
MEAN_ELEMENT_THEORY = SGP/SGP4

EPOCH          = 2026-03-01T20:01:55.659936
MEAN_MOTION    = 15.23853743
ECCENTRICITY   = .0151911
INCLINATION    = 97.6527
RA_OF_ASC_NODE = 136.1504
ARG_OF_PERICENTER = 38.6426
MEAN_ANOMALY   = 322.5564

EPHEMERIS_TYPE = 0
CLASSIFICATION_TYPE = U
NORAD_CAT_ID   = 67647
ELEMENT_SET_NO = 999
REV_AT_EPOCH   = 450
BSTAR          = .42613E-3
MEAN_MOTION_DOT = .14194E-3
MEAN_MOTION_DDOT = 0

CCSDS_OMM_VERS = 2.0
CREATION_DATE  = 
ORIGINATOR     = 

OBJECT_NAME    = STARLINK-36719
OBJECT_ID      = 2026-022A
CENTER_NAME    = EARTH
REF_FRAME      = TEME
TIME_SYSTEM    = UTC
MEAN_ELEMENT_THEORY = SGP/SGP4

EPOCH          = 2026-03-01T15:47:48.761664
MEAN_MOTION    = 15.75233624
ECCENTRICITY   = .0001634
INCLINATION    = 97.2830
RA_OF_ASC_NODE = 94.2247
ARG_OF_PERICENTER = 63.5874
MEAN_ANOMALY   = 296.5559

EPHEMERIS_TYPE = 0
CLASSIFICATION_TYPE = U
NORAD_CAT_ID   = 67648
ELEMENT_SET_NO = 999
REV_AT_EPOCH   = 428
BSTAR          = .15326E-2
MEAN_MOTION_DOT = .23533E-2
MEAN_MOTION_DDOT = 0

CCSDS_OMM_VERS = 2.0
CREATION_DATE  = 
ORIGINATOR     = 

OBJECT_NAME    = STARLINK-36342
OBJECT_ID      = 2026-022B
CENTER_NAME    = EARTH
REF_FRAME      = TEME
TIME_SYSTEM    = UTC
MEAN_ELEMENT_THEORY = SGP/SGP4

EPOCH          = 2026-03-01T14:15:18.983808
MEAN_MOTION    = 15.75185256
ECCENTRICITY   = .0001192
INCLINATION    = 97.2838
RA_OF_ASC_NODE = 94.1592
ARG_OF_PERICENTER = 90.4301
MEAN_ANOMALY   = 269.7101

EPHEMERIS_TYPE = 0
CLASSIFICATION_TYPE = U
NORAD_CAT_ID   = 67649
ELEMENT_SET_NO = 999
REV_AT_EPOCH   = 427
BSTAR          = .16391E-2
MEAN_MOTION_DOT = .251644E-2
MEAN_MOTION_DDOT = 0

CCSDS_OMM_VERS = 2.0
CREATION_DATE  = 
ORIGINATOR     = 

OBJECT_NAME    = STARLINK-36703
OBJECT_ID      = 2026-022C
CENTER_NAME    = EARTH
REF_FRAME      = TEME
TIME_SYSTEM    = UTC
MEAN_ELEMENT_THEORY = SGP/SGP4

EPOCH          = 2026-03-01T15:45:16.255296
MEAN_MOTION    = 15.75193407
ECCENTRICITY   = .0001114
INCLINATION    = 97.2839
RA_OF_ASC_NODE = 94.2273
ARG_OF_PERICENTER = 83.3745
MEAN_ANOMALY   = 276.7647

EPHEMERIS_TYPE = 0
CLASSIFICATION_TYPE = U
NORAD_CAT_ID   = 67650
ELEMENT_SET_NO = 999
REV_AT_EPOCH   = 428
BSTAR          = .15157E-2
MEAN_MOTION_DOT = .232233E-2
MEAN_MOTION_DDOT = 0

CCSDS_OMM_VERS = 2.0
CREATION_DATE  = 
ORIGINATOR     = 

OBJECT_NAME    = STARLINK-36696
OBJECT_ID      = 2026-022D
CENTER_NAME    = EARTH
REF_FRAME      = TEME
TIME_SYSTEM    = UTC
MEAN_ELEMENT_THEORY = SGP/SGP4

EPOCH          = 2026-03-01T14:11:15.766080
MEAN_MOTION    = 15.75333485
ECCENTRICITY   = .0002026
INCLINATION    = 97.2829
RA_OF_ASC_NODE = 94.1622
ARG_OF_PERICENTER = 63.9354
MEAN_ANOMALY   = 296.2120

EPHEMERIS_TYPE = 0
CLASSIFICATION_TYPE = U
NORAD_CAT_ID   = 67651
ELEMENT_SET_NO = 999
REV_AT_EPOCH   = 427
BSTAR          = .23638E-2
MEAN_MOTION_DOT = .37047E-2
MEAN_MOTION_DDOT = 0

CCSDS_OMM_VERS = 2.0
CREATION_DATE  = 
ORIGINATOR     = 

OBJECT_NAME    = STARLINK-36699
OBJECT_ID      = 2026-022E
CENTER_NAME    = EARTH
REF_FRAME      = TEME
TIME_SYSTEM    = UTC
MEAN_ELEMENT_THEORY = SGP/SGP4

EPOCH          = 2026-03-01T15:41:42.780768
MEAN_MOTION    = 15.75191616
ECCENTRICITY   = .0001216
INCLINATION    = 97.2837
RA_OF_ASC_NODE = 94.2306
ARG_OF_PERICENTER = 91.0529
MEAN_ANOMALY   = 269.0875

EPHEMERIS_TYPE = 0
CLASSIFICATION_TYPE = U
NORAD_CAT_ID   = 67652
ELEMENT_SET_NO = 999
REV_AT_EPOCH   = 428
BSTAR          = .23835E-2
MEAN_MOTION_DOT = .371322E-2
MEAN_MOTION_DDOT = 0

CCSDS_OMM_VERS = 2.0
CREATION_DATE  = 
ORIGINATOR     = 

OBJECT_NAME    = STARLINK-36694
OBJECT_ID      = 2026-022F
CENTER_NAME    = EARTH
REF_FRAME      = TEME
TIME_SYSTEM    = UTC
MEAN_ELEMENT_THEORY = SGP/SGP4

EPOCH          = 2026-03-01T14:07:11.476128
MEAN_MOTION    = 15.75184057
ECCENTRICITY   = .0002256
INCLINATION    = 97.2836
RA_OF_ASC_NODE = 94.1666
ARG_OF_PERICENTER = 77.6117
MEAN_ANOMALY   = 282.5400

EPHEMERIS_TYPE = 0
CLASSIFICATION_TYPE = U
NORAD_CAT_ID   = 67653
ELEMENT_SET_NO = 999
REV_AT_EPOCH   = 427
BSTAR          = .15308E-2
MEAN_MOTION_DOT = .23453E-2
MEAN_MOTION_DDOT = 0

CCSDS_OMM_VERS = 2.0
CREATION_DATE  = 
ORIGINATOR     = 

OBJECT_NAME    = STARLINK-36620
OBJECT_ID      = 2026-022G
CENTER_NAME    = EARTH
REF_FRAME      = TEME
TIME_SYSTEM    = UTC
MEAN_ELEMENT_THEORY = SGP/SGP4

EPOCH          = 2026-03-01T12:35:11.879520
MEAN_MOTION    = 15.75323190
ECCENTRICITY   = .0001459
INCLINATION    = 97.2819
RA_OF_ASC_NODE = 94.0990
ARG_OF_PERICENTER = 56.0567
MEAN_ANOMALY   = 304.0837

EPHEMERIS_TYPE = 0
CLASSIFICATION_TYPE = U
NORAD_CAT_ID   = 67654
ELEMENT_SET_NO = 999
REV_AT_EPOCH   = 426
BSTAR          = .20938E-2
MEAN_MOTION_DOT = .326277E-2
MEAN_MOTION_DDOT = 0

CCSDS_OMM_VERS = 2.0
CREATION_DATE  = 
ORIGINATOR     = 

OBJECT_NAME    = STARLINK-36720
OBJECT_ID      = 2026-022H
CENTER_NAME    = EARTH
REF_FRAME      = TEME
TIME_SYSTEM    = UTC
MEAN_ELEMENT_THEORY = SGP/SGP4

EPOCH          = 2026-03-01T15:35:36.910464
MEAN_MOTION    = 15.75202063
ECCENTRICITY   = .000098
INCLINATION    = 97.2833
RA_OF_ASC_NODE = 94.2356
ARG_OF_PERICENTER = 88.3647
MEAN_ANOMALY   = 271.7730

EPHEMERIS_TYPE = 0
CLASSIFICATION_TYPE = U
NORAD_CAT_ID   = 67655
ELEMENT_SET_NO = 999
REV_AT_EPOCH   = 428
BSTAR          = .20206E-2
MEAN_MOTION_DOT = .312726E-2
MEAN_MOTION_DDOT = 0

CCSDS_OMM_VERS = 2.0
CREATION_DATE  = 
ORIGINATOR     = 

OBJECT_NAME    = STARLINK-36688
OBJECT_ID      = 2026-022J
CENTER_NAME    = EARTH
REF_FRAME      = TEME
TIME_SYSTEM    = UTC
MEAN_ELEMENT_THEORY = SGP/SGP4

EPOCH          = 2026-03-01T15:34:36.396768
MEAN_MOTION    = 15.75177842
ECCENTRICITY   = .0002338
INCLINATION    = 97.2834
RA_OF_ASC_NODE = 94.2359
ARG_OF_PERICENTER = 64.2139
MEAN_ANOMALY   = 295.9367

EPHEMERIS_TYPE = 0
CLASSIFICATION_TYPE = U
NORAD_CAT_ID   = 67656
ELEMENT_SET_NO = 999
REV_AT_EPOCH   = 428
BSTAR          = .1253E-2
MEAN_MOTION_DOT = .190916E-2
MEAN_MOTION_DDOT = 0

CCSDS_OMM_VERS = 2.0
CREATION_DATE  = 
ORIGINATOR     = 

OBJECT_NAME    = STARLINK-36706
OBJECT_ID      = 2026-022K
CENTER_NAME    = EARTH
REF_FRAME      = TEME
TIME_SYSTEM    = UTC
MEAN_ELEMENT_THEORY = SGP/SGP4

EPOCH          = 2026-03-01T15:32:33.962784
MEAN_MOTION    = 15.75206066
ECCENTRICITY   = .0000956
INCLINATION    = 97.2840
RA_OF_ASC_NODE = 94.2377
ARG_OF_PERICENTER = 98.6727
MEAN_ANOMALY   = 261.4646

EPHEMERIS_TYPE = 0
CLASSIFICATION_TYPE = U
NORAD_CAT_ID   = 67657
ELEMENT_SET_NO = 999
REV_AT_EPOCH   = 428
BSTAR          = .23996E-2
MEAN_MOTION_DOT = .374202E-2
MEAN_MOTION_DDOT = 0

